{
  "type": "FeatureCollection",
  "features": [
    {
      "type": "Feature",
      "properties": {
        "norad_id": 66976,
        "name": "STARLINK-35772",
        "group": "last-30-days",
        "lat": -22.170940392013044,
        "lon": -76.67961837004232,
        "alt_km": 445.9336101505396,
        "timestamp": "2025-12-27T18:38:02.206004+00:00",
        "meta_object_name": "STARLINK-35772",
        "meta_object_id": "2025-288T",
        "meta_epoch": "2025-12-27T12:00:02.000160",
        "meta_mean_motion": 15.40667942,
        "meta_eccentricity": 0.0001469,
        "meta_inclination": 43.0003,
        "meta_ra_of_asc_node": 78.9819,
        "meta_arg_of_pericenter": 285.3468,
        "meta_mean_anomaly": 193.3956,
        "meta_ephemeris_type": 0,
        "meta_classification_type": "U",
        "meta_norad_cat_id": 66976,
        "meta_element_set_no": 999,
        "meta_rev_at_epoch": 420,
        "meta_bstar": 0.00088144,
        "meta_mean_motion_dot": 0.00036654,
        "meta_mean_motion_ddot": 0,
        "tle_line1": "1 66976U 25288T   25361.50002315  .00036654  00000+0  88144-3 0  9993",
        "tle_line2": "2 66976  43.0003  78.9819 0001469 285.3468 193.3956 15.40667942  4200"
      },
      "geometry": {
        "type": "Point",
        "coordinates": [
          -76.67961837004232,
          -22.170940392013044
        ]
      }
    },
    {
      "type": "Feature",
      "properties": {
        "norad_id": 66977,
        "name": "STARLINK-35770",
        "group": "last-30-days",
        "lat": 33.22461094237118,
        "lon": -148.8318981578859,
        "alt_km": 399.29689059139764,
        "timestamp": "2025-12-27T18:38:02.206038+00:00",
        "meta_object_name": "STARLINK-35770",
        "meta_object_id": "2025-288U",
        "meta_epoch": "2025-12-27T12:00:02.000160",
        "meta_mean_motion": 15.55695053,
        "meta_eccentricity": 0.0001369,
        "meta_inclination": 42.9997,
        "meta_ra_of_asc_node": 77.4569,
        "meta_arg_of_pericenter": 277.1316,
        "meta_mean_anomaly": 100.1697,
        "meta_ephemeris_type": 0,
        "meta_classification_type": "U",
        "meta_norad_cat_id": 66977,
        "meta_element_set_no": 999,
        "meta_rev_at_epoch": 420,
        "meta_bstar": -0.032549,
        "meta_mean_motion_dot": -0.0205128,
        "meta_mean_motion_ddot": 0,
        "tle_line1": "1 66977U 25288U   25361.50002315 -.02051280  00000+0 -32549-1 0  9996",
        "tle_line2": "2 66977  42.9997  77.4569 0001369 277.1316 100.1697 15.55695053  4205"
      },
      "geometry": {
        "type": "Point",
        "coordinates": [
          -148.8318981578859,
          33.22461094237118
        ]
      }
    },
    {
      "type": "Feature",
      "properties": {
        "norad_id": 66978,
        "name": "STARLINK-35787",
        "group": "last-30-days",
        "lat": 30.295747180529258,
        "lon": -143.01420909014834,
        "alt_km": 399.82583283288204,
        "timestamp": "2025-12-27T18:38:02.206050+00:00",
        "meta_object_name": "STARLINK-35787",
        "meta_object_id": "2025-288V",
        "meta_epoch": "2025-12-27T12:00:02.000160",
        "meta_mean_motion": 15.55698957,
        "meta_eccentricity": 0.0001407,
        "meta_inclination": 43,
        "meta_ra_of_asc_node": 77.4418,
        "meta_arg_of_pericenter": 285.1521,
        "meta_mean_anomaly": 97.8993,
        "meta_ephemeris_type": 0,
        "meta_classification_type": "U",
        "meta_norad_cat_id": 66978,
        "meta_element_set_no": 999,
        "meta_rev_at_epoch": 420,
        "meta_bstar": -0.032707,
        "meta_mean_motion_dot": -0.02060482,
        "meta_mean_motion_ddot": 0,
        "tle_line1": "1 66978U 25288V   25361.50002315 -.02060482  00000+0 -32707-1 0  9997",
        "tle_line2": "2 66978  43.0000  77.4418 0001407 285.1521  97.8993 15.55698957  4203"
      },
      "geometry": {
        "type": "Point",
        "coordinates": [
          -143.01420909014834,
          30.295747180529258
        ]
      }
    },
    {
      "type": "Feature",
      "properties": {
        "norad_id": 66979,
        "name": "STARLINK-36107",
        "group": "last-30-days",
        "lat": 29.265692453826464,
        "lon": -141.15875607394597,
        "alt_km": 399.85727009270795,
        "timestamp": "2025-12-27T18:38:02.206060+00:00",
        "meta_object_name": "STARLINK-36107",
        "meta_object_id": "2025-288W",
        "meta_epoch": "2025-12-27T12:00:02.000160",
        "meta_mean_motion": 15.55690331,
        "meta_eccentricity": 0.0001401,
        "meta_inclination": 43.0002,
        "meta_ra_of_asc_node": 77.4372,
        "meta_arg_of_pericenter": 275.4335,
        "meta_mean_anomaly": 109.5372,
        "meta_ephemeris_type": 0,
        "meta_classification_type": "U",
        "meta_norad_cat_id": 66979,
        "meta_element_set_no": 999,
        "meta_rev_at_epoch": 420,
        "meta_bstar": -0.032418,
        "meta_mean_motion_dot": -0.02043608,
        "meta_mean_motion_ddot": 0,
        "tle_line1": "1 66979U 25288W   25361.50002315 -.02043608  00000+0 -32418-1 0  9998",
        "tle_line2": "2 66979  43.0002  77.4372 0001401 275.4335 109.5372 15.55690331  4204"
      },
      "geometry": {
        "type": "Point",
        "coordinates": [
          -141.15875607394597,
          29.265692453826464
        ]
      }
    },
    {
      "type": "Feature",
      "properties": {
        "norad_id": 66980,
        "name": "STARLINK-36086",
        "group": "last-30-days",
        "lat": 28.2061066697964,
        "lon": -139.33430556691314,
        "alt_km": 400.0124396617639,
        "timestamp": "2025-12-27T18:38:02.206072+00:00",
        "meta_object_name": "STARLINK-36086",
        "meta_object_id": "2025-288X",
        "meta_epoch": "2025-12-27T12:00:02.000160",
        "meta_mean_motion": 15.55693451,
        "meta_eccentricity": 0.0001313,
        "meta_inclination": 43.0002,
        "meta_ra_of_asc_node": 77.4322,
        "meta_arg_of_pericenter": 279.4373,
        "meta_mean_anomaly": 107.452,
        "meta_ephemeris_type": 0,
        "meta_classification_type": "U",
        "meta_norad_cat_id": 66980,
        "meta_element_set_no": 999,
        "meta_rev_at_epoch": 420,
        "meta_bstar": -0.032548,
        "meta_mean_motion_dot": -0.02051098,
        "meta_mean_motion_ddot": 0,
        "tle_line1": "1 66980U 25288X   25361.50002315 -.02051098  00000+0 -32548-1 0  9996",
        "tle_line2": "2 66980  43.0002  77.4322 0001313 279.4373 107.4520 15.55693451  4207"
      },
      "geometry": {
        "type": "Point",
        "coordinates": [
          -139.33430556691314,
          28.2061066697964
        ]
      }
    },
    {
      "type": "Feature",
      "properties": {
        "norad_id": 66981,
        "name": "STARLINK-36142",
        "group": "last-30-days",
        "lat": 27.12716753489958,
        "lon": -137.55280240526392,
        "alt_km": 400.22581007581357,
        "timestamp": "2025-12-27T18:38:02.206083+00:00",
        "meta_object_name": "STARLINK-36142",
        "meta_object_id": "2025-288Y",
        "meta_epoch": "2025-12-27T12:00:02.000160",
        "meta_mean_motion": 15.5568811,
        "meta_eccentricity": 0.0001439,
        "meta_inclination": 43.0004,
        "meta_ra_of_asc_node": 77.4276,
        "meta_arg_of_pericenter": 278.7818,
        "meta_mean_anomaly": 110.024,
        "meta_ephemeris_type": 0,
        "meta_classification_type": "U",
        "meta_norad_cat_id": 66981,
        "meta_element_set_no": 999,
        "meta_rev_at_epoch": 420,
        "meta_bstar": -0.032387,
        "meta_mean_motion_dot": -0.02041755,
        "meta_mean_motion_ddot": 0,
        "tle_line1": "1 66981U 25288Y   25361.50002315 -.02041755  00000+0 -32387-1 0  9997",
        "tle_line2": "2 66981  43.0004  77.4276 0001439 278.7818 110.0240 15.55688110  4208"
      },
      "geometry": {
        "type": "Point",
        "coordinates": [
          -137.55280240526392,
          27.12716753489958
        ]
      }
    },
    {
      "type": "Feature",
      "properties": {
        "norad_id": 66982,
        "name": "STARLINK-36113",
        "group": "last-30-days",
        "lat": 26.022853636391737,
        "lon": -135.80179978655235,
        "alt_km": 400.48564349784465,
        "timestamp": "2025-12-27T18:38:02.206093+00:00",
        "meta_object_name": "STARLINK-36113",
        "meta_object_id": "2025-288Z",
        "meta_epoch": "2025-12-27T12:00:02.000160",
        "meta_mean_motion": 15.55698179,
        "meta_eccentricity": 0.0001596,
        "meta_inclination": 43.0002,
        "meta_ra_of_asc_node": 77.4225,
        "meta_arg_of_pericenter": 279.9553,
        "meta_mean_anomaly": 110.7653,
        "meta_ephemeris_type": 0,
        "meta_classification_type": "U",
        "meta_norad_cat_id": 66982,
        "meta_element_set_no": 999,
        "meta_rev_at_epoch": 420,
        "meta_bstar": -0.032671,
        "meta_mean_motion_dot": -0.02058532,
        "meta_mean_motion_ddot": 0,
        "tle_line1": "1 66982U 25288Z   25361.50002315 -.02058532  00000+0 -32671-1 0  9995",
        "tle_line2": "2 66982  43.0002  77.4225 0001596 279.9553 110.7653 15.55698179  4205"
      },
      "geometry": {
        "type": "Point",
        "coordinates": [
          -135.80179978655235,
          26.022853636391737
        ]
      }
    }
  ]
}